[{"OBJECT_NAME":"STARLINK-2412","OBJECT_ID":"2021-027C","EPOCH":"2026-03-09T12:34:29.396640","MEAN_MOTION":15.30209851,"ECCENTRICITY":0.00016696,"INCLINATION":53.1611,"RA_OF_ASC_NODE":166.0484,"ARG_OF_PERICENTER":69.9486,"MEAN_ANOMALY":290.1695,"EPHEMERIS_TYPE":0,"CLASSIFICATION_TYPE":"U","NORAD_CAT_ID":48094,"ELEMENT_SET_NO":999,"REV_AT_EPOCH":27249,"BSTAR":0.00034051734,"MEAN_MOTION_DOT":9.742e-5,"MEAN_MOTION_DDOT":0},{"OBJECT_NAME":"SL-3 R\/B","OBJECT_ID":"1981-065B","EPOCH":"2026-03-09T21:58:16.284000","MEAN_MOTION":15.33300883,"ECCENTRICITY":0.00117648,"INCLINATION":97.6337,"RA_OF_ASC_NODE":111.1786,"ARG_OF_PERICENTER":10.529,"MEAN_ANOMALY":349.6196,"EPHEMERIS_TYPE":0,"CLASSIFICATION_TYPE":"U","NORAD_CAT_ID":12586,"ELEMENT_SET_NO":999,"REV_AT_EPOCH":43499,"BSTAR":0.00030084921,"MEAN_MOTION_DOT":9.62e-5,"MEAN_MOTION_DDOT":0}]
